{
    "links": {
        "self": "http://www.neowsapp.com/rest/v1/neo/3764836?api_key=iIulBulltgU6a56xZRHN4H3l9WmuAYTsLGpBGhQ2"
    },
    "id": "3764836",
    "neo_reference_id": "3764836",
    "name": "(2016 WQ8)",
    "designation": "2016 WQ8",
    "nasa_jpl_url": "http://ssd.jpl.nasa.gov/sbdb.cgi?sstr=3764836",
    "absolute_magnitude_h": 24.6,
    "estimated_diameter": {
        "kilometers": {
            "estimated_diameter_min": 0.0319561887,
            "estimated_diameter_max": 0.0714562102
        },
        "meters": {
            "estimated_diameter_min": 31.9561886721,
            "estimated_diameter_max": 71.4562101727
        },
        "miles": {
            "estimated_diameter_min": 0.0198566489,
            "estimated_diameter_max": 0.0444008168
        },
        "feet": {
            "estimated_diameter_min": 104.8431420431,
            "estimated_diameter_max": 234.436392583
        }
    },
    "is_potentially_hazardous_asteroid": false,
    "close_approach_data": [
        {
            "close_approach_date": "1939-08-18",
            "close_approach_date_full": "1939-Aug-18 05:39",
            "epoch_date_close_approach": -958501260000,
            "relative_velocity": {
                "kilometers_per_second": "6.6341171268",
                "kilometers_per_hour": "23882.8216565498",
                "miles_per_hour": "14839.8566009823"
            },
            "miss_distance": {
                "astronomical": "0.0985431742",
                "lunar": "38.3332947638",
                "kilometers": "14741848.963358954",
                "miles": "9160160.1835594052"
            },
            "orbiting_body": "Venus"
        },
        {
            "close_approach_date": "2016-12-08",
            "close_approach_date_full": "2016-Dec-08 20:40",
            "epoch_date_close_approach": 1481229600000,
            "relative_velocity": {
                "kilometers_per_second": "13.9468364467",
                "kilometers_per_hour": "50208.6112080714",
                "miles_per_hour": "31197.678447593"
            },
            "miss_distance": {
                "astronomical": "0.0130504017",
                "lunar": "5.0766062613",
                "kilometers": "1952312.296964379",
                "miles": "1213110.6086472702"
            },
            "orbiting_body": "Earth"
        }
    ],
    "orbital_data": {
        "orbit_id": "7",
        "orbit_determination_date": "2017-04-06 08:21:51",
        "first_observation_date": "2016-11-25",
        "last_observation_date": "2016-12-08",
        "data_arc_in_days": 13,
        "observations_used": 65,
        "orbit_uncertainty": "7",
        "minimum_orbit_intersection": ".0131086",
        "jupiter_tisserand_invariant": "3.460",
        "epoch_osculation": "2459000.5",
        "eccentricity": ".6144573208369414",
        "semi_major_axis": "2.120123503772238",
        "inclination": "2.834244664408937",
        "ascending_node_longitude": "61.61079429548047",
        "orbital_period": "1127.561316119451",
        "perihelion_distance": ".8173980958009195",
        "perihelion_argument": "72.04420027278763",
        "aphelion_distance": "3.422848911743555",
        "perihelion_time": "2458897.195478780516",
        "mean_anomaly": "32.98235502349781",
        "mean_motion": ".3192731028046925",
        "equinox": "J2000",
        "orbit_class": {
            "orbit_class_type": "APO",
            "orbit_class_description": "Near-Earth asteroid orbits which cross the Earth’s orbit similar to that of 1862 Apollo",
            "orbit_class_range": "a (semi-major axis) > 1.0 AU; q (perihelion) < 1.017 AU"
        }
    },
    "is_sentry_object": false
}